start=new Date('2021-09-18T00:00:00.000Z').valueOf();
sats=[{"BSTAR":"0.00008250900000","FILE":"3118116","OBJECT_ID":"2021-005K","LAUNCH_DATE":"2021-01-20","MEAN_MOTION_DOT":"0.00000948","RCS_SIZE":"LARGE","PERIOD":"95.592","INCLINATION":"53.0548","APOAPSIS":"548.593","DECAY_DATE":null,"NORAD_CAT_ID":"47358","TLE_LINE1":"1 47358U 21005K   21260.72206282  .00000948  00000-0  82509-4 0  9994","OBJECT_TYPE":"PAYLOAD","COUNTRY_CODE":"US","CLASSIFICATION_TYPE":"U","MEAN_MOTION":"15.06401248","GP_ID":"184912892","CENTER_NAME":"EARTH","TLE_LINE2":"2 47358  53.0548 166.7804 0001997  68.7383 291.3819 15.06401248 37180","REF_FRAME":"TEME","SITE":"AFETR","OBJECT_NAME":"STARLINK-2055","EPOCH":"2021-09-17T17:19:46.227648","RA_OF_ASC_NODE":"166.7804","TIME_SYSTEM":"UTC","ARG_OF_PERICENTER":"68.7383","SEMIMAJOR_AXIS":"6925.345","EPHEMERIS_TYPE":"0","MEAN_MOTION_DDOT":"0.0000000000000","ELEMENT_SET_NO":"999","MEAN_ANOMALY":"291.3819","ECCENTRICITY":"0.00019970","REV_AT_EPOCH":"3718","MEAN_ELEMENT_THEORY":"SGP4","PERIAPSIS":"545.827"},{"MEAN_MOTION_DDOT":"0.0000000000000","EPHEMERIS_TYPE":"0","SEMIMAJOR_AXIS":"6925.346","MEAN_ELEMENT_THEORY":"SGP4","PERIAPSIS":"545.938","REV_AT_EPOCH":"3680","MEAN_ANOMALY":"293.9284","ECCENTRICITY":"0.00018380","ELEMENT_SET_NO":"999","SITE":"AFETR","TLE_LINE2":"2 47359  53.0557 192.6327 0001838  66.1897 293.9284 15.06400921 36804","REF_FRAME":"TEME","GP_ID":"184911640","CENTER_NAME":"EARTH","ARG_OF_PERICENTER":"66.1897","RA_OF_ASC_NODE":"192.6327","TIME_SYSTEM":"UTC","OBJECT_NAME":"STARLINK-2069","EPOCH":"2021-09-17T12:48:25.063488","TLE_LINE1":"1 47359U 21005L   21260.53362342  .00001269  00000-0  10406-3 0  9997","OBJECT_TYPE":"PAYLOAD","DECAY_DATE":null,"NORAD_CAT_ID":"47359","MEAN_MOTION":"15.06400921","CLASSIFICATION_TYPE":"U","COUNTRY_CODE":"US","MEAN_MOTION_DOT":"0.00001269","LAUNCH_DATE":"2021-01-20","FILE":"3118116","OBJECT_ID":"2021-005L","BSTAR":"0.00010406000000","APOAPSIS":"548.484","INCLINATION":"53.0557","PERIOD":"95.592","RCS_SIZE":"LARGE"},{"TLE_LINE1":"1 47360U 21005M   21260.14199553  .00001075  00000-0  91059-4 0  9997","OBJECT_TYPE":"PAYLOAD","DECAY_DATE":null,"NORAD_CAT_ID":"47360","MEAN_MOTION":"15.06396405","CLASSIFICATION_TYPE":"U","COUNTRY_CODE":"US","MEAN_MOTION_DOT":"0.00001075","LAUNCH_DATE":"2021-01-20","OBJECT_ID":"2021-005M","FILE":"3117657","BSTAR":"0.00009105900000","APOAPSIS":"548.719","INCLINATION":"53.0567","RCS_SIZE":"LARGE","PERIOD":"95.592","EPHEMERIS_TYPE":"0","MEAN_MOTION_DDOT":"0.0000000000000","SEMIMAJOR_AXIS":"6925.360","MEAN_ELEMENT_THEORY":"SGP4","PERIAPSIS":"545.730","REV_AT_EPOCH":"3717","ECCENTRICITY":"0.00021580","MEAN_ANOMALY":"305.2911","ELEMENT_SET_NO":"999","SITE":"AFETR","TLE_LINE2":"2 47360  53.0567 164.3872 0002158  54.8280 305.2911 15.06396405 37170","REF_FRAME":"TEME","GP_ID":"184880206","CENTER_NAME":"EARTH","ARG_OF_PERICENTER":"54.8280","TIME_SYSTEM":"UTC","RA_OF_ASC_NODE":"164.3872","OBJECT_NAME":"STARLINK-2070","EPOCH":"2021-09-17T03:24:28.413792"},{"SITE":"AFETR","TLE_LINE2":"2 47361  53.0531 167.9366 0002055  50.8228 309.2943 15.06395058 37142","REF_FRAME":"TEME","GP_ID":"184913141","CENTER_NAME":"EARTH","ARG_OF_PERICENTER":"50.8228","TIME_SYSTEM":"UTC","RA_OF_ASC_NODE":"167.9366","OBJECT_NAME":"STARLINK-2071","EPOCH":"2021-09-17T11:08:14.066016","EPHEMERIS_TYPE":"0","MEAN_MOTION_DDOT":"0.0000000000000","SEMIMAJOR_AXIS":"6925.364","MEAN_ELEMENT_THEORY":"SGP4","PERIAPSIS":"545.806","REV_AT_EPOCH":"3714","ECCENTRICITY":"0.00020550","MEAN_ANOMALY":"309.2943","ELEMENT_SET_NO":"999","MEAN_MOTION_DOT":"0.00001130","LAUNCH_DATE":"2021-01-20","FILE":"3118116","OBJECT_ID":"2021-005N","BSTAR":"0.00009475900000","APOAPSIS":"548.652","INCLINATION":"53.0531","RCS_SIZE":"LARGE","PERIOD":"95.592","TLE_LINE1":"1 47361U 21005N   21260.46405169  .00001130  00000-0  94759-4 0  9998","OBJECT_TYPE":"PAYLOAD","DECAY_DATE":null,"NORAD_CAT_ID":"47361","MEAN_MOTION":"15.06395058","CLASSIFICATION_TYPE":"U","COUNTRY_CODE":"US"},{"SITE":"AFETR","TLE_LINE2":"2 47362  53.0542 198.9423 0001811  66.2635 293.8544 15.06394342 36694","REF_FRAME":"TEME","GP_ID":"184879205","CENTER_NAME":"EARTH","ARG_OF_PERICENTER":"66.2635","RA_OF_ASC_NODE":"198.9423","TIME_SYSTEM":"UTC","OBJECT_NAME":"STARLINK-2076","EPOCH":"2021-09-17T05:51:06.117120","EPHEMERIS_TYPE":"0","MEAN_MOTION_DDOT":"0.0000000000000","SEMIMAJOR_AXIS":"6925.366","MEAN_ELEMENT_THEORY":"SGP4","PERIAPSIS":"545.977","REV_AT_EPOCH":"3669","ECCENTRICITY":"0.00018110","MEAN_ANOMALY":"293.8544","ELEMENT_SET_NO":"999","MEAN_MOTION_DOT":"-0.00000654","LAUNCH_DATE":"2021-01-20","BSTAR":"-0.00002502300000","FILE":"3117657","OBJECT_ID":"2021-005P","APOAPSIS":"548.485","INCLINATION":"53.0542","RCS_SIZE":"LARGE","PERIOD":"95.592","TLE_LINE1":"1 47362U 21005P   21260.24382080 -.00000654  00000-0 -25023-4 0  9991","OBJECT_TYPE":"PAYLOAD","DECAY_DATE":null,"NORAD_CAT_ID":"47362","MEAN_MOTION":"15.06394342","CLASSIFICATION_TYPE":"U","COUNTRY_CODE":"US"},{"APOAPSIS":"548.363","INCLINATION":"53.0534","PERIOD":"95.593","RCS_SIZE":"LARGE","MEAN_MOTION_DOT":"0.00000028","LAUNCH_DATE":"2021-01-20","BSTAR":"0.00002078700000","FILE":"3118116","OBJECT_ID":"2021-005Q","MEAN_MOTION":"15.06394107","CLASSIFICATION_TYPE":"U","COUNTRY_CODE":"US","OBJECT_TYPE":"PAYLOAD","TLE_LINE1":"1 47363U 21005Q   21260.77827749  .00000028  00000-0  20787-4 0  9991","NORAD_CAT_ID":"47363","DECAY_DATE":null,"ARG_OF_PERICENTER":"68.6413","RA_OF_ASC_NODE":"196.5381","TIME_SYSTEM":"UTC","EPOCH":"2021-09-17T18:40:43.175136","OBJECT_NAME":"STARLINK-2077","SITE":"AFETR","REF_FRAME":"TEME","TLE_LINE2":"2 47363  53.0534 196.5381 0001633  68.6413 291.4750 15.06394107 36776","CENTER_NAME":"EARTH","GP_ID":"184912140","PERIAPSIS":"546.101","MEAN_ELEMENT_THEORY":"SGP4","REV_AT_EPOCH":"3677","ECCENTRICITY":"0.00016330","MEAN_ANOMALY":"291.4750","ELEMENT_SET_NO":"999","MEAN_MOTION_DDOT":"0.0000000000000","EPHEMERIS_TYPE":"0","SEMIMAJOR_AXIS":"6925.367"},{"RA_OF_ASC_NODE":"197.5618","TIME_SYSTEM":"UTC","EPOCH":"2021-09-17T13:06:20.532672","OBJECT_NAME":"STARLINK-2079","ARG_OF_PERICENTER":"63.7655","CENTER_NAME":"EARTH","GP_ID":"184912390","SITE":"AFETR","REF_FRAME":"TEME","TLE_LINE2":"2 47364  53.0544 197.5618 0001957  63.7655 296.3535 15.06395346 36732","MEAN_ANOMALY":"296.3535","ECCENTRICITY":"0.00019570","ELEMENT_SET_NO":"999","PERIAPSIS":"545.873","MEAN_ELEMENT_THEORY":"SGP4","REV_AT_EPOCH":"3673","SEMIMAJOR_AXIS":"6925.363","EPHEMERIS_TYPE":"0","MEAN_MOTION_DDOT":"0.0000000000000","INCLINATION":"53.0544","RCS_SIZE":"LARGE","PERIOD":"95.592","APOAPSIS":"548.583","LAUNCH_DATE":"2021-01-20","FILE":"3118116","OBJECT_ID":"2021-005R","BSTAR":"-0.00000556510000","MEAN_MOTION_DOT":"-0.00000365","COUNTRY_CODE":"US","MEAN_MOTION":"15.06395346","CLASSIFICATION_TYPE":"U","OBJECT_TYPE":"PAYLOAD","TLE_LINE1":"1 47364U 21005R   21260.54607098 -.00000365  00000-0 -55651-5 0  9995","NORAD_CAT_ID":"47364","DECAY_DATE":null},{"RA_OF_ASC_NODE":"109.3692","TIME_SYSTEM":"UTC","OBJECT_NAME":"STARLINK-2080","EPOCH":"2021-09-17T20:51:59.533056","ARG_OF_PERICENTER":"29.9308","GP_ID":"184912642","CENTER_NAME":"EARTH","SITE":"AFETR","TLE_LINE2":"2 47365  53.0496 109.3692 0002156  29.9308 330.1833 15.73233942 38000","REF_FRAME":"TEME","MEAN_ANOMALY":"330.1833","ECCENTRICITY":"0.00021560","ELEMENT_SET_NO":"999","MEAN_ELEMENT_THEORY":"SGP4","PERIAPSIS":"348.213","REV_AT_EPOCH":"3800","SEMIMAJOR_AXIS":"6727.798","MEAN_MOTION_DDOT":"0.0000000000000","EPHEMERIS_TYPE":"0","INCLINATION":"53.0496","RCS_SIZE":"LARGE","PERIOD":"91.531","APOAPSIS":"351.114","LAUNCH_DATE":"2021-01-20","BSTAR":"0.00014140000000","FILE":"3118116","OBJECT_ID":"2021-005S","MEAN_MOTION_DOT":"0.00019302","COUNTRY_CODE":"US","MEAN_MOTION":"15.73233942","CLASSIFICATION_TYPE":"U","TLE_LINE1":"1 47365U 21005S   21260.86943904  .00019302  00000-0  14140-3 0  9995","OBJECT_TYPE":"PAYLOAD","DECAY_DATE":null,"NORAD_CAT_ID":"47365"},{"DECAY_DATE":null,"NORAD_CAT_ID":"47366","TLE_LINE1":"1 47366U 21005T   21260.53868979  .00001365  00000-0  11051-3 0  9996","OBJECT_TYPE":"PAYLOAD","CLASSIFICATION_TYPE":"U","MEAN_MOTION":"15.06397754","COUNTRY_CODE":"US","MEAN_MOTION_DOT":"0.00001365","FILE":"3118116","BSTAR":"0.00011051000000","OBJECT_ID":"2021-005T","LAUNCH_DATE":"2021-01-20","APOAPSIS":"548.408","RCS_SIZE":"LARGE","PERIOD":"95.592","INCLINATION":"53.0558","EPHEMERIS_TYPE":"0","MEAN_MOTION_DDOT":"0.0000000000000","SEMIMAJOR_AXIS":"6925.355","REV_AT_EPOCH":"3673","MEAN_ELEMENT_THEORY":"SGP4","PERIAPSIS":"546.033","ELEMENT_SET_NO":"999","MEAN_ANOMALY":"297.2727","ECCENTRICITY":"0.00017150","TLE_LINE2":"2 47366  53.0558 197.5994 0001715  62.8437 297.2727 15.06397754 36734","REF_FRAME":"TEME","SITE":"AFETR","GP_ID":"184912893","CENTER_NAME":"EARTH","ARG_OF_PERICENTER":"62.8437","OBJECT_NAME":"STARLINK-2081","EPOCH":"2021-09-17T12:55:42.797856","TIME_SYSTEM":"UTC","RA_OF_ASC_NODE":"197.5994"},{"PERIOD":"95.593","RCS_SIZE":"LARGE","INCLINATION":"53.0546","APOAPSIS":"548.635","FILE":"3118116","BSTAR":"-0.00002656200000","OBJECT_ID":"2021-005U","LAUNCH_DATE":"2021-01-20","MEAN_MOTION_DOT":"-0.00000677","COUNTRY_CODE":"US","CLASSIFICATION_TYPE":"U","MEAN_MOTION":"15.06392761","DECAY_DATE":null,"NORAD_CAT_ID":"47367","TLE_LINE1":"1 47367U 21005U   21260.56450051 -.00000677  00000-0 -26562-4 0  9999","OBJECT_TYPE":"PAYLOAD","OBJECT_NAME":"STARLINK-2082","EPOCH":"2021-09-17T13:32:52.844064","TIME_SYSTEM":"UTC","RA_OF_ASC_NODE":"197.5043","ARG_OF_PERICENTER":"65.9180","GP_ID":"184911641","CENTER_NAME":"EARTH","TLE_LINE2":"2 47367  53.0546 197.5043 0002021  65.9180 294.2020 15.06392761 36744","REF_FRAME":"TEME","SITE":"AFETR","ELEMENT_SET_NO":"999","ECCENTRICITY":"0.00020210","MEAN_ANOMALY":"294.2020","REV_AT_EPOCH":"3674","MEAN_ELEMENT_THEORY":"SGP4","PERIAPSIS":"545.836","SEMIMAJOR_AXIS":"6925.371","MEAN_MOTION_DDOT":"0.0000000000000","EPHEMERIS_TYPE":"0"}];
